ONEWEB-0201             
1 48241U 21031AH  24038.91560428  .00000273  00000+0  70083-3 0  9990
2 48241  87.8944 100.9565 0001722  98.5827 261.5498 13.14502131135362
ONEWEB-0207             
1 48242U 21031AJ  24039.12334055 -.00000129  00000+0 -38266-3 0  9999
2 48242  87.8943 100.8822 0001672 108.1493 251.9819 13.14506162135300
ONEWEB-0208             
1 48243U 21031AK  24039.18122503 -.00000083  00000+0 -25847-3 0  9999
2 48243  87.8944 100.8866 0001734  94.6634 265.4694 13.14502184135328
ONEWEB-0200             
1 48244U 21031AL  24038.91640196  .00000217  00000+0  55063-3 0  9993
2 48244  87.8941 100.9385 0001793  93.2098 266.9237 13.14502159135216
ONEWEB-0217             
1 48245U 21031AM  24039.08449685  .00000292  00000+0  75346-3 0  9992
2 48245  87.8942 100.8896 0001789  88.2361 271.8974 13.14502552135193
ONEWEB-0211             
1 48767U 21045A   24038.81058631 -.00000088  00000+0 -26669-3 0  9992
2 48767  87.8947  70.4318 0001859  93.7573 266.3770 13.15547032131295
ONEWEB-0223             
1 48768U 21045B   24038.52853626  .00000214  00000+0  53553-3 0  9999
2 48768  87.8951  70.4915 0002575  85.5070 274.6355 13.15549141132386
ONEWEB-0230             
1 48769U 21045C   24038.80425465 -.00000061  00000+0 -19731-3 0  9999
2 48769  87.8950  70.5086 0002004  97.6384 262.4974 13.15549163131548
ONEWEB-0237             
1 48770U 21045D   24038.79315701  .00000031  00000+0  48852-4 0  9992
2 48770  87.8958  70.4343 0002325  88.7240 271.4157 13.15548132131268
ONEWEB-0235             
1 48771U 21045E   24038.84386206  .00000216  00000+0  53956-3 0  9992
2 48771  87.8948  70.4448 0002650  89.1857 270.9577 13.15547088131263
ONEWEB-0242             
1 48772U 21045F   24038.83752609  .00000191  00000+0  47260-3 0  9999
2 48772  87.8947  70.4357 0002120  95.3745 264.7627 13.15547458131302
ONEWEB-0241             
1 48773U 21045G   24038.82484830  .00000034  00000+0  56252-4 0  9995
2 48773  87.8956  70.4727 0002056  81.5123 278.6240 13.15547094131210
ONEWEB-0243             
1 48774U 21045H   24038.78047750  .00000190  00000+0  47061-3 0  9997
2 48774  87.8957  70.4395 0002352  92.1330 268.0070 13.15547845131230
ONEWEB-0222             
1 48775U 21045J   24038.84695610  .00000200  00000+0  49751-3 0  9999
2 48775  87.8946  70.4476 0002082  85.8569 274.2800 13.15548508131284
ONEWEB-0244             
1 48776U 21045K   24038.78998640  .00000043  00000+0  79861-4 0  9993
2 48776  87.8945  70.4400 0002148  98.1121 262.0253 13.15548376131847
ONEWEB-0247             
1 48777U 21045L   24038.78682180  .00000143  00000+0  34531-3 0  9998
2 48777  87.8954  70.4710 0003018  86.8605 273.2871 13.15547343131281
ONEWEB-0245             
1 48778U 21045M   24038.78206774  .00000211  00000+0  52537-3 0  9992
2 48778  87.8946  70.4703 0001877  83.7306 276.4038 13.15548693131256
ONEWEB-0229             
1 48779U 21045N   24038.77731167  .00000218  00000+0  54487-3 0  9994
2 48779  87.8948  70.4633 0002104  94.3108 265.8263 13.15547808131285
ONEWEB-0228             
1 48780U 21045P   24038.79235777  .00000047  00000+0  91973-4 0  9996
2 48780  87.8944  70.4385 0002026  94.4655 265.6706 13.15547733131207
ONEWEB-0232             
1 48781U 21045Q   24038.78523288  .00000102  00000+0  23560-3 0  9991
2 48781  87.8941  70.4673 0002027  93.8199 266.3163 13.15548795131521
ONEWEB-0231             
1 48782U 21045R   24038.83910814  .00000205  00000+0  51108-3 0  9996
2 48782  87.8955  70.4665 0002170  91.8481 268.2898 13.15547959131223
ONEWEB-0234             
1 48783U 21045S   24038.78285260  .00000115  00000+0  27256-3 0  9998
2 48783  87.8949  70.4467 0000649  57.2176 302.9016 13.15547351131351
ONEWEB-0238             
1 48784U 21045T   24038.81295511 -.00000069  00000+0 -21728-3 0  9991
2 48784  87.8947  70.4593 0001756  94.7916 265.3415 13.15549258131250
ONEWEB-0240             
1 48785U 21045U   24038.82247049  .00000147  00000+0  35759-3 0  9990
2 48785  87.8945  70.4257 0002093  82.1471 277.9896 13.15547685131285
ONEWEB-0246             
1 48786U 21045V   24038.81691554  .00001147  00000+0  30131-2 0  9993
2 48786  87.8948  70.4292 0002367  89.3174 270.8228 13.15556024131155
ONEWEB-0210             
1 48787U 21045W   24038.79156524  .00000018  00000+0  13232-4 0  9995
2 48787  87.8947  70.4413 0002623  99.5646 260.5780 13.15549109131191
ONEWEB-0214             
1 48788U 21045X   24038.80106430 -.00000052  00000+0 -17195-3 0  9990
2 48788  87.8946  70.4275 0002562 101.4871 258.6547 13.15547167131160
ONEWEB-0221             
1 48789U 21045Y   24038.80741131 -.00000036  00000+0 -13065-3 0  9998
2 48789  87.8950  70.4408 0002108  88.2178 271.9194 13.15549270131255
ONEWEB-0213             
1 48790U 21045Z   24038.79632191  .00000016  00000+0  84480-5 0  9990
2 48790  87.8947  70.4591 0002276  88.3288 271.8103 13.15548839131311
ONEWEB-0212             
1 48791U 21045AA  24038.84941010  .00000201  00000+0  49878-3 0  9996
2 48791  87.8951  70.4289 0001794  93.5915 266.5420 13.15547893131312
ONEWEB-0227             
1 48792U 21045AB  24038.84861947  .00000186  00000+0  45956-3 0  9992
2 48792  87.8950  70.4461 0001931  90.4911 269.6441 13.15547125131268
ONEWEB-0226             
1 48793U 21045AC  24038.84227650  .00000210  00000+0  52297-3 0  9994
2 48793  87.8949  70.4548 0002487  93.4065 266.7349 13.15548135131237
ONEWEB-0224             
1 48794U 21045AD  24038.80584085 -.00000069  00000+0 -21676-3 0  9990
2 48794  87.8953  70.4772 0002146  71.1963 288.9400 13.15548385131156
ONEWEB-0233             
1 48795U 21045AE  24038.80187115 -.00000063  00000+0 -20205-3 0  9995
2 48795  87.8951  70.4909 0002103  95.9508 264.1862 13.15548043131170
ONEWEB-0190             
1 48796U 21045AF  24038.79790159 -.00000023  00000+0 -95686-4 0  9994
2 48796  87.8951  70.4540 0002953  82.2156 277.9309 13.15549936131241
ONEWEB-0236             
1 48797U 21045AG  24038.81533874 -.00000257  00000+0 -71679-3 0  9991
2 48797  87.8954  70.4392 0001435  90.3904 269.7391 13.15549187131131
ONEWEB-0248             
1 48798U 21045AH  24038.82801656  .00000169  00000+0  41588-3 0  9995
2 48798  87.8947  70.4391 0002272  73.5440 286.5940 13.15548865131297
ONEWEB-0225             
1 48799U 21045AJ  24038.62202528  .00000164  00000+0  40109-3 0  9990
2 48799  87.8954  70.4858 0002272  85.8389 274.3001 13.15547349131279
ONEWEB-0215             
1 48800U 21045AK  24038.82009279  .00000055  00000+0  11123-3 0  9996
2 48800  87.8945  70.4279 0002580  76.4609 283.6809 13.15548716131179
ONEWEB-0216             
1 48801U 21045AL  24038.82960564  .00000106  00000+0  24796-3 0  9997
2 48801  87.8946  70.4656 0002193  99.8204 260.3174 13.15546699131186
ONEWEB-0239             
1 48802U 21045AM  24038.83435939  .00000113  00000+0  26697-3 0  9992
2 48802  87.8955  70.4288 0002454  74.2058 285.9343 13.15548127131226
ONEWEB-0249             
1 48967U 21060A   24038.91851214  .00000134  00000+0  31748-3 0  9994
2 48967  87.9049  39.9779 0001802  87.7617 272.3720 13.16594825126415
ONEWEB-0250             
1 48968U 21060B   24038.92327065  .00000147  00000+0  35042-3 0  9993
2 48968  87.9047  39.9612 0001980  79.8558 280.2796 13.16594385126392
ONEWEB-0252             
1 48970U 21060D   24038.72219288 -.00000009  00000+0 -57058-4 0  9992
2 48970  87.9047  40.0101 0001986  91.9654 268.1705 13.16594323126431
ONEWEB-0253             
1 48971U 21060E   24038.93910350  .00000003  00000+0 -24801-4 0  9997
2 48971  87.9046  39.9819 0002175  85.3236 274.8143 13.16593079126390
ONEWEB-0254             
1 48972U 21060F   24038.72060525  .00000009  00000+0 -88210-5 0  9996
2 48972  87.9046  40.0006 0002189  85.0783 275.0598 13.16593201126362
ONEWEB-0255             
1 48973U 21060G   24038.91060300  .00000125  00000+0  29305-3 0  9995
2 48973  87.9045  39.9983 0001847  86.1722 273.9620 13.16593696126460
ONEWEB-0256             
1 48974U 21060H   24038.93672572 -.00000750  00000+0 -19955-2 0  9993
2 48974  87.9030  39.9966 0002112  94.1706 265.9667 13.16589030126439
ONEWEB-0257             
1 48975U 21060J   24038.89317702  .00000061  00000+0  12600-3 0  9994
2 48975  87.9045  39.9750 0002026  92.4350 267.7012 13.16594612126387
ONEWEB-0258             
1 48976U 21060K   24038.89476898  .00000056  00000+0  11179-3 0  9991
2 48976  87.9045  40.0038 0001828  87.0042 273.1298 13.16593667126394
ONEWEB-0259             
1 48977U 21060L   24038.73643966  .00000046  00000+0  85815-4 0  9995
2 48977  87.9044  40.0202 0001869  79.6738 280.4603 13.16593117126404
ONEWEB-0260             
1 48978U 21060M   24038.73011329  .00000001  00000+0 -31950-4 0  9991
2 48978  87.9045  40.0508 0002279 105.0465 255.0919 13.16594880126385
ONEWEB-0261             
1 48979U 21060N   24038.92483452  .00000108  00000+0  24968-3 0  9990
2 48979  87.9049  40.0016 0002424  84.9008 275.2399 13.16593201126465
ONEWEB-0262             
1 48980U 21060P   24038.90584948  .00000180  00000+0  43689-3 0  9993
2 48980  87.9047  39.9728 0002036  75.2061 284.9295 13.16595213126426
ONEWEB-0263             
1 48981U 21060Q   24038.93751132  .00000018  00000+0  13397-4 0  9992
2 48981  87.9051  39.9785 0002309  85.0604 275.0790 13.16595608126395
ONEWEB-0264             
1 48982U 21060R   24038.89872773  .00000124  00000+0  29074-3 0  9999
2 48982  87.9047  39.9992 0001930  88.4221 271.7131 13.16593308126399
ONEWEB-0266             
1 48984U 21060T   24038.92009552  .00000113  00000+0  26169-3 0  9992
2 48984  87.9048  39.9757 0001693  86.5764 273.5561 13.16594446126388
ONEWEB-0267             
1 48985U 21060U   24038.93118814  .00000052  00000+0  10228-3 0  9997
2 48985  87.9048  39.9745 0002286  88.7186 271.4207 13.16594288126396
ONEWEB-0268             
1 48986U 21060V   24038.89952389  .00000080  00000+0  17587-3 0  9992
2 48986  87.9045  39.9869 0001990  92.6719 267.4640 13.16595005126651
